{
  "norad_id": 54182,
  "name": "STARLINK-5231",
  "history": [
    {
      "epoch": "2026-03-28T19:53:49.275456Z",
      "apogee_km": 540.6329422280996,
      "perigee_km": 538.8479914841009,
      "latitude_deg": 3.3545100292473494e-06,
      "longitude_deg": 123.13561058068207,
      "height_km": 540.6353740468695,
      "semi_major_axis_km": 6917.8774668561,
      "eccentricity": 0.00012901,
      "inclination_deg": 53.2168,
      "raan_deg": 247.8348,
      "arg_perigee_deg": 89.9466,
      "mean_anomaly_deg": 270.1674,
      "mean_motion_rev_day": 15.08840956
    },
    {
      "epoch": "2026-03-30T10:03:04.560192Z",
      "apogee_km": 540.6230775676158,
      "perigee_km": 538.8359159368456,
      "latitude_deg": -1.8432220955887817e-06,
      "longitude_deg": -97.88181795313285,
      "height_km": 540.444136253238,
      "semi_major_axis_km": 6917.866496752231,
      "eccentricity": 0.00012917,
      "inclination_deg": 53.2167,
      "raan_deg": 240.698,
      "arg_perigee_deg": 78.3051,
      "mean_anomaly_deg": 281.8086,
      "mean_motion_rev_day": 15.08844545
    }
  ]
}